IRIDIUM 57              
1 25273U 98019B   24285.91737332  .00002368  00000+0  81730-3 0  9992
2 25273  86.3934 249.1928 0002456  89.0232 271.1246 14.35479422389374
IRIDIUM 63              
1 25286U 98021B   24285.47659601  .00002923  00000+0  99818-3 0  9995
2 25286  86.4054 186.3534 0002365  78.6501 281.4962 14.36090204388140
IRIDIUM 69              
1 25319U 98026A   24285.82708112  .00003735  00000+0  11711-2 0  9995
2 25319  86.4040 200.2218 0004505 102.2730 257.8974 14.40388776387545
IRIDIUM 71              
1 25320U 98026B   24285.45512148  .00003022  00000+0  94123-3 0  9996
2 25320  86.4046 195.1227 0002817 131.3468 228.7974 14.40664143387777
IRIDIUM 73              
1 25344U 98032C   24285.86766323  .00003403  00000+0  85585-3 0  9995
2 25344  86.4449 152.2337 0002824  90.1367 270.0161 14.50994313394844
IRIDIUM 82              
1 25467U 98051A   24285.82082607  .00044771  00000+0  19438-2 0  9990
2 25467  86.3741 230.1880 0117065 147.8746 212.9701 15.16049583386128
